[{"OBJECT_NAME":"STARLINK-32605","OBJECT_ID":"2024-207K","EPOCH":"2026-03-04T01:30:24.985152","MEAN_MOTION":15.2754774,"ECCENTRICITY":0.00010892,"INCLINATION":42.9988,"RA_OF_ASC_NODE":313.3382,"ARG_OF_PERICENTER":270.1979,"MEAN_ANOMALY":89.8748,"EPHEMERIS_TYPE":0,"CLASSIFICATION_TYPE":"U","NORAD_CAT_ID":61921,"ELEMENT_SET_NO":999,"REV_AT_EPOCH":7386,"BSTAR":0.0011598098,"MEAN_MOTION_DOT":0.00031759,"MEAN_MOTION_DDOT":0},{"OBJECT_NAME":"STARLINK-32579","OBJECT_ID":"2024-207L","EPOCH":"2026-03-04T02:14:07.099008","MEAN_MOTION":15.27604502,"ECCENTRICITY":0.00016564,"INCLINATION":43.003,"RA_OF_ASC_NODE":317.0259,"ARG_OF_PERICENTER":271.7481,"MEAN_ANOMALY":88.3181,"EPHEMERIS_TYPE":0,"CLASSIFICATION_TYPE":"U","NORAD_CAT_ID":61922,"ELEMENT_SET_NO":999,"REV_AT_EPOCH":7382,"BSTAR":0.00095667982,"MEAN_MOTION_DOT":0.00026177,"MEAN_MOTION_DDOT":0},{"OBJECT_NAME":"STARLINK-32537","OBJECT_ID":"2024-207M","EPOCH":"2026-03-04T01:05:51.782208","MEAN_MOTION":15.27613258,"ECCENTRICITY":0.00025784,"INCLINATION":43.0005,"RA_OF_ASC_NODE":317.5308,"ARG_OF_PERICENTER":248.6404,"MEAN_ANOMALY":111.4172,"EPHEMERIS_TYPE":0,"CLASSIFICATION_TYPE":"U","NORAD_CAT_ID":61923,"ELEMENT_SET_NO":999,"REV_AT_EPOCH":7381,"BSTAR":0.0015387031,"MEAN_MOTION_DOT":0.00042368,"MEAN_MOTION_DDOT":0},{"OBJECT_NAME":"STARLINK-32564","OBJECT_ID":"2024-207N","EPOCH":"2026-03-04T02:30:46.023840","MEAN_MOTION":15.27610984,"ECCENTRICITY":0.00018746,"INCLINATION":43.0019,"RA_OF_ASC_NODE":317.1099,"ARG_OF_PERICENTER":253.4531,"MEAN_ANOMALY":106.6115,"EPHEMERIS_TYPE":0,"CLASSIFICATION_TYPE":"U","NORAD_CAT_ID":61924,"ELEMENT_SET_NO":999,"REV_AT_EPOCH":7382,"BSTAR":0.00090335939,"MEAN_MOTION_DOT":0.00024703,"MEAN_MOTION_DDOT":0},{"OBJECT_NAME":"STARLINK-32536","OBJECT_ID":"2024-207P","EPOCH":"2026-03-04T02:45:34.284960","MEAN_MOTION":15.27607253,"ECCENTRICITY":0.00013754,"INCLINATION":42.9998,"RA_OF_ASC_NODE":317.1878,"ARG_OF_PERICENTER":267.4355,"MEAN_ANOMALY":92.6339,"EPHEMERIS_TYPE":0,"CLASSIFICATION_TYPE":"U","NORAD_CAT_ID":61925,"ELEMENT_SET_NO":999,"REV_AT_EPOCH":7382,"BSTAR":0.00096640967,"MEAN_MOTION_DOT":0.00026449,"MEAN_MOTION_DDOT":0},{"OBJECT_NAME":"STARLINK-32624","OBJECT_ID":"2024-207Q","EPOCH":"2026-03-04T02:31:15.373056","MEAN_MOTION":15.27648722,"ECCENTRICITY":0.00017832,"INCLINATION":43.0013,"RA_OF_ASC_NODE":312.7922,"ARG_OF_PERICENTER":260.9373,"MEAN_ANOMALY":99.1277,"EPHEMERIS_TYPE":0,"CLASSIFICATION_TYPE":"U","NORAD_CAT_ID":61926,"ELEMENT_SET_NO":999,"REV_AT_EPOCH":7387,"BSTAR":0.0015643427,"MEAN_MOTION_DOT":0.00043128,"MEAN_MOTION_DDOT":0},{"OBJECT_NAME":"STARLINK-32622","OBJECT_ID":"2024-207R","EPOCH":"2026-03-04T01:08:11.917824","MEAN_MOTION":15.27604491,"ECCENTRICITY":0.00015594,"INCLINATION":43.0004,"RA_OF_ASC_NODE":313.2195,"ARG_OF_PERICENTER":262.8137,"MEAN_ANOMALY":97.2537,"EPHEMERIS_TYPE":0,"CLASSIFICATION_TYPE":"U","NORAD_CAT_ID":61927,"ELEMENT_SET_NO":999,"REV_AT_EPOCH":7386,"BSTAR":0.0013345834,"MEAN_MOTION_DOT":0.00036673,"MEAN_MOTION_DDOT":0},{"OBJECT_NAME":"STARLINK-32620","OBJECT_ID":"2024-207S","EPOCH":"2026-03-04T01:50:45.835296","MEAN_MOTION":15.27623515,"ECCENTRICITY":0.00012057,"INCLINATION":43.0011,"RA_OF_ASC_NODE":313.4427,"ARG_OF_PERICENTER":280.0795,"MEAN_ANOMALY":79.9921,"EPHEMERIS_TYPE":0,"CLASSIFICATION_TYPE":"U","NORAD_CAT_ID":61928,"ELEMENT_SET_NO":999,"REV_AT_EPOCH":7386,"BSTAR":0.00091526533,"MEAN_MOTION_DOT":0.00025043,"MEAN_MOTION_DDOT":0},{"OBJECT_NAME":"STARLINK-32609","OBJECT_ID":"2024-207T","EPOCH":"2026-03-04T14:12:54.561024","MEAN_MOTION":15.27608031,"ECCENTRICITY":3.399e-5,"INCLINATION":42.9962,"RA_OF_ASC_NODE":310.4281,"ARG_OF_PERICENTER":156.2669,"MEAN_ANOMALY":203.8198,"EPHEMERIS_TYPE":0,"CLASSIFICATION_TYPE":"U","NORAD_CAT_ID":61929,"ELEMENT_SET_NO":999,"REV_AT_EPOCH":7394,"BSTAR":0.0010395228,"MEAN_MOTION_DOT":0.00028478,"MEAN_MOTION_DDOT":0},{"OBJECT_NAME":"STARLINK-32567","OBJECT_ID":"2024-207U","EPOCH":"2026-03-04T02:00:42.084288","MEAN_MOTION":15.27613146,"ECCENTRICITY":0.00016364,"INCLINATION":43.0022,"RA_OF_ASC_NODE":310.0172,"ARG_OF_PERICENTER":266.6652,"MEAN_ANOMALY":93.4012,"EPHEMERIS_TYPE":0,"CLASSIFICATION_TYPE":"U","NORAD_CAT_ID":61930,"ELEMENT_SET_NO":999,"REV_AT_EPOCH":7449,"BSTAR":0.0011451231,"MEAN_MOTION_DOT":0.00031416,"MEAN_MOTION_DDOT":0},{"OBJECT_NAME":"STARLINK-32420","OBJECT_ID":"2024-207V","EPOCH":"2026-03-04T01:19:18.074784","MEAN_MOTION":15.2761902,"ECCENTRICITY":0.00019735,"INCLINATION":43.0013,"RA_OF_ASC_NODE":313.2772,"ARG_OF_PERICENTER":253.8183,"MEAN_ANOMALY":106.2451,"EPHEMERIS_TYPE":0,"CLASSIFICATION_TYPE":"U","NORAD_CAT_ID":61931,"ELEMENT_SET_NO":999,"REV_AT_EPOCH":7386,"BSTAR":0.0015999959,"MEAN_MOTION_DOT":0.00044083,"MEAN_MOTION_DDOT":0},{"OBJECT_NAME":"STARLINK-32354","OBJECT_ID":"2024-207W","EPOCH":"2026-03-04T00:51:03.335328","MEAN_MOTION":15.27609975,"ECCENTRICITY":0.00028611,"INCLINATION":43.005,"RA_OF_ASC_NODE":317.4482,"ARG_OF_PERICENTER":250.742,"MEAN_ANOMALY":109.3123,"EPHEMERIS_TYPE":0,"CLASSIFICATION_TYPE":"U","NORAD_CAT_ID":61932,"ELEMENT_SET_NO":999,"REV_AT_EPOCH":7430,"BSTAR":0.0012426752,"MEAN_MOTION_DOT":0.00034125,"MEAN_MOTION_DDOT":0},{"OBJECT_NAME":"STARLINK-32361","OBJECT_ID":"2024-207X","EPOCH":"2026-03-04T00:53:36.388608","MEAN_MOTION":15.27607988,"ECCENTRICITY":0.00019433,"INCLINATION":43.0011,"RA_OF_ASC_NODE":313.9884,"ARG_OF_PERICENTER":255.0505,"MEAN_ANOMALY":105.0132,"EPHEMERIS_TYPE":0,"CLASSIFICATION_TYPE":"U","NORAD_CAT_ID":61933,"ELEMENT_SET_NO":999,"REV_AT_EPOCH":7385,"BSTAR":0.0012437043,"MEAN_MOTION_DOT":0.0003415,"MEAN_MOTION_DDOT":0},{"OBJECT_NAME":"STARLINK-32500","OBJECT_ID":"2024-207Z","EPOCH":"2026-03-04T02:08:34.081440","MEAN_MOTION":15.27605314,"ECCENTRICITY":0.00011514,"INCLINATION":43.001,"RA_OF_ASC_NODE":316.9972,"ARG_OF_PERICENTER":278.984,"MEAN_ANOMALY":81.0881,"EPHEMERIS_TYPE":0,"CLASSIFICATION_TYPE":"U","NORAD_CAT_ID":61935,"ELEMENT_SET_NO":999,"REV_AT_EPOCH":7382,"BSTAR":0.0011667455,"MEAN_MOTION_DOT":0.00032008,"MEAN_MOTION_DDOT":0},{"OBJECT_NAME":"STARLINK-11407 [DTC]","OBJECT_ID":"2024-209A","EPOCH":"2026-03-04T05:32:53.745504","MEAN_MOTION":15.69779224,"ECCENTRICITY":0.00019541,"INCLINATION":53.1574,"RA_OF_ASC_NODE":37.9467,"ARG_OF_PERICENTER":46.7098,"MEAN_ANOMALY":313.4082,"EPHEMERIS_TYPE":0,"CLASSIFICATION_TYPE":"U","NORAD_CAT_ID":61939,"ELEMENT_SET_NO":999,"REV_AT_EPOCH":7588,"BSTAR":0.0019624513,"MEAN_MOTION_DOT":0.00245017,"MEAN_MOTION_DDOT":0},{"OBJECT_NAME":"STARLINK-11337 [DTC]","OBJECT_ID":"2024-209B","EPOCH":"2026-03-04T05:25:49.847232","MEAN_MOTION":15.69748106,"ECCENTRICITY":0.00016006,"INCLINATION":53.1572,"RA_OF_ASC_NODE":37.913,"ARG_OF_PERICENTER":74.7642,"MEAN_ANOMALY":285.3553,"EPHEMERIS_TYPE":0,"CLASSIFICATION_TYPE":"U","NORAD_CAT_ID":61940,"ELEMENT_SET_NO":999,"REV_AT_EPOCH":7586,"BSTAR":0.0021994606,"MEAN_MOTION_DOT":0.00275339,"MEAN_MOTION_DDOT":0}]
