STARLINK-32605          
1 61921U 24207K   26063.06278918  .00031759  00000+0  11598-2 0  9992
2 61921  42.9988 313.3382 0001089 270.1979  89.8748 15.27547740 73867
STARLINK-32579          
1 61922U 24207L   26063.09313772  .00026177  00000+0  95668-3 0  9993
2 61922  43.0030 317.0259 0001656 271.7481  88.3181 15.27604502 73828
STARLINK-32537          
1 61923U 24207M   26063.04573822  .00042368  00000+0  15387-2 0  9992
2 61923  43.0005 317.5308 0002578 248.6404 111.4172 15.27613258 73818
STARLINK-32564          
1 61924U 24207N   26063.10469935  .00024703  00000+0  90336-3 0  9990
2 61924  43.0019 317.1099 0001874 253.4531 106.6115 15.27610984 73827
STARLINK-32536          
1 61925U 24207P   26063.11498015  .00026449  00000+0  96641-3 0  9997
2 61925  42.9998 317.1878 0001375 267.4355  92.6339 15.27607253 73829
STARLINK-32624          
1 61926U 24207Q   26063.10503904  .00043128  00000+0  15643-2 0  9996
2 61926  43.0013 312.7922 0001783 260.9373  99.1277 15.27648722 73876
STARLINK-32622          
1 61927U 24207R   26063.04736016  .00036673  00000+0  13346-2 0  9997
2 61927  43.0004 313.2195 0001559 262.8137  97.2537 15.27604491 73867
STARLINK-32620          
1 61928U 24207S   26063.07691939  .00025043  00000+0  91527-3 0  9992
2 61928  43.0011 313.4427 0001205 280.0795  79.9921 15.27623515 73868
STARLINK-32609          
1 61929U 24207T   26063.59229816  .00028478  00000+0  10395-2 0  9999
2 61929  42.9962 310.4281 0000339 156.2669 203.8198 15.27608031 73947
STARLINK-32567          
1 61930U 24207U   26063.08382042  .00031416  00000+0  11451-2 0  9996
2 61930  43.0022 310.0172 0001636 266.6652  93.4012 15.27613146 74494
STARLINK-32420          
1 61931U 24207V   26063.05507031  .00044083  00000+0  16000-2 0  9990
2 61931  43.0013 313.2772 0001973 253.8183 106.2451 15.27619020 73864
STARLINK-32354          
1 61932U 24207W   26063.03545527  .00034125  00000+0  12427-2 0  9996
2 61932  43.0050 317.4482 0002861 250.7420 109.3123 15.27609975 74305
STARLINK-32361          
1 61933U 24207X   26063.03722672  .00034150  00000+0  12437-2 0  9994
2 61933  43.0011 313.9884 0001943 255.0505 105.0132 15.27607988 73856
STARLINK-32500          
1 61935U 24207Z   26063.08928335  .00032008  00000+0  11667-2 0  9999
2 61935  43.0010 316.9972 0001151 278.9840  81.0881 15.27605314 73827
STARLINK-11407 [DTC]    
1 61939U 24209A   26063.23117761  .00245017  00000+0  19625-2 0  9993
2 61939  53.1574  37.9467 0001954  46.7098 313.4082 15.69779224 75885
STARLINK-11337 [DTC]    
1 61940U 24209B   26063.22627138  .00275339  00000+0  21995-2 0  9991
2 61940  53.1572  37.9130 0001600  74.7642 285.3553 15.69748106 75869
